     3.02           N: GNSS NAV DATA    M: Mixed            RINEX VERSION / TYPE
HGO                 HITARGET            20211215 085134 UTC PGM / RUN BY / DATE 
GPSA   9.3132D-09 -1.4901D-08 -5.9605D-08  1.1921D-07       IONOSPHERIC CORR    
GPSB   9.6256D+04 -1.4746D+05 -1.3107D+05  9.1750D+05       IONOSPHERIC CORR    
    18                                                      LEAP SECONDS        
                                                            END OF HEADER       
C12 2021 12 14 08 00 00-4.266069736332D-04-3.399058812192D-12 5.014435047745D-19
     6.000000000000D+00-1.069375000000D+02 3.391927001660D-09 1.511108587441D+00
    -5.248934030533D-06 1.380965579301D-03 6.130430847406D-06 5.282609308243D+03
     2.016000000000D+05 2.188608050346D-08-1.429128479612D+00-3.445893526077D-08
     9.885269558641D-01 2.538750000000D+02-1.861505638839D+00-6.743495179356D-09
    -2.528676758108D-10 0.000000000000D+00 8.320000000000D+02 0.000000000000D+00
     2.000000000000D+00 0.000000000000D+00 2.599999993080D-09 0.000000000000D+00
     0.000000000000D+00 5.000000000000D+00                                      
C05 2021 12 14 08 00 00 3.330087056383D-04 1.201971855380D-11 0.000000000000D+00
     1.000000000000D+00-2.531718750000D+02 3.753727786401D-10-1.363225247529D+00
    -8.091330528259D-06 4.972756141797D-04 1.611979678273D-05 6.493352937698D+03
     2.016000000000D+05 5.541369318962D-08-7.819652520372D-01-1.117587089539D-07
     1.129784246792D-01-4.876875000000D+02-9.776626781348D-01 8.050335328780D-10
     4.732339978098D-10 0.000000000000D+00 8.320000000000D+02 0.000000000000D+00
     2.000000000000D+00 0.000000000000D+00-4.999999858590D-10 0.000000000000D+00
     0.000000000000D+00 0.000000000000D+00                                      
C04 2021 12 14 08 00 00 3.725540591404D-04 8.431566556055D-11 0.000000000000D+00
     1.000000000000D+00-3.537656250000D+02-1.232551340711D-09 2.660391583622D+00
    -1.153908669949D-05 7.000641198829D-04 1.996569335461D-05 6.493449882507D+03
     2.016000000000D+05-5.541369318962D-08-9.498022898435D-01 5.168840289116D-08
     1.010406459599D-01-6.198750000000D+02-3.065701743309D+00 2.327239796022D-09
     5.271648156734D-10 0.000000000000D+00 8.320000000000D+02 0.000000000000D+00
     2.000000000000D+00 0.000000000000D+00 5.099999977887D-09 0.000000000000D+00
     0.000000000000D+00 0.000000000000D+00                                      
C03 2021 12 14 08 00 00 3.624805249274D-04 7.744827001943D-11 0.000000000000D+00
     1.000000000000D+00-2.887031250000D+02 1.292910997790D-10-1.971630941703D+00
    -9.223818778992D-06 7.676407694817D-04 1.999130472541D-05 6.493451799393D+03
     2.016000000000D+05 1.271255314350D-07-8.375918269359D-01 1.634471118450D-07
     1.091616655587D-01-6.122187500000D+02 5.910879215731D-01 8.268201546639D-10
     5.582375385485D-10 0.000000000000D+00 8.320000000000D+02 0.000000000000D+00
     2.000000000000D+00 0.000000000000D+00 2.299999968258D-09 0.000000000000D+00
     0.000000000000D+00 0.000000000000D+00                                      
C02 2021 12 14 08 00 00 8.083214052022D-04-3.479705412701D-11 0.000000000000D+00
     1.000000000000D+00-2.054375000000D+02 3.307280618656D-10-1.258585725079D+00
    -6.533693522215D-06 1.090883510187D-03 1.759361475706D-05 6.493474739075D+03
     2.016000000000D+05 1.951120793819D-07-7.793208359667D-01-4.190951585770D-09
     1.030072599001D-01-5.364218750000D+02-6.440815950294D-01 7.689606017242D-10
     5.396653363703D-10 0.000000000000D+00 8.320000000000D+02 0.000000000000D+00
     2.000000000000D+00 0.000000000000D+00 9.999999717181D-10 0.000000000000D+00
     0.000000000000D+00 0.000000000000D+00                                      
C01 2021 12 14 08 00 00-3.465602640063D-04 3.994937713969D-11 0.000000000000D+00
     1.000000000000D+00-3.998125000000D+02-1.551850355082D-09 2.297656923365D+00
    -1.295795664191D-05 6.586948875338D-04 1.843692734838D-05 6.493523708344D+03
     2.016000000000D+05-9.126961231232D-08-9.595908312441D-01 1.052394509315D-07
     9.378825006279D-02-5.671093750000D+02-2.965178549029D+00 2.548677591223D-09
     5.285934466102D-10 0.000000000000D+00 8.320000000000D+02 0.000000000000D+00
     2.000000000000D+00 0.000000000000D+00-5.800000035805D-09 0.000000000000D+00
     0.000000000000D+00 0.000000000000D+00                                      
C25 2021 12 14 08 00 00-8.102327119559D-04 5.596412222530D-12 0.000000000000D+00
     1.000000000000D+00 7.792187500000D+01 3.754799259603D-09 1.582481978898D-01
     3.943685442209D-06 5.380649818107D-04 1.039030030370D-05 5.282627304077D+03
     2.016000000000D+05 1.396983861923D-08 2.724235678048D+00 2.188608050346D-08
     9.499146375632D-01 1.448125000000D+02 4.202714375123D-01-6.707422248202D-09
     5.500229106620D-11 0.000000000000D+00 8.320000000000D+02 0.000000000000D+00
     2.000000000000D+00 0.000000000000D+00 9.000000189552D-10 0.000000000000D+00
     0.000000000000D+00 1.000000000000D+00                                      
E31 2021 12 14 06 10 00-4.893346922472D-04-5.400124791777D-13 0.000000000000D+00
     6.900000000000D+01 1.520000000000D+02 2.887977438710D-09 1.431833619949D+00
     7.059425115585D-06 3.278867807239D-04 6.569549441338D-06 5.440626682281D+03
     1.950000000000D+05-5.587935447693D-09-3.037470007892D+00-5.401670932770D-08
     9.754957351186D-01 2.053125000000D+02-9.214797715826D-01-5.606662111410D-09
     2.885834492304D-10 0.000000000000D+00 2.188000000000D+03                   
     1.070000000000D+02 0.000000000000D+00 5.122274160385D-09 5.820766091347D-09
     0.000000000000D+00                                                         
E04 2021 12 14 05 50 00-9.203885565512D-04-8.185452315956D-12 0.000000000000D+00
     6.700000000000D+01-4.393750000000D+01 3.640151626926D-09 9.923339353773D-02
    -2.203509211540D-06 9.752553887665D-05 4.993751645088D-06 5.440610115051D+03
     1.938000000000D+05 5.215406417847D-08 1.149642955952D+00 1.862645149231D-09
     9.553241882413D-01 2.324062500000D+02 2.373625979804D+00-5.857029683082D-09
    -2.775115594704D-10 0.000000000000D+00 2.188000000000D+03                   
     1.070000000000D+02 0.000000000000D+00-2.561137080193D-09-2.793967723846D-09
     0.000000000000D+00                                                         
E01 2021 12 14 06 20 00-5.376195185818D-04-8.043343768804D-12 0.000000000000D+00
     7.000000000000D+01 1.559375000000D+02 2.930479209079D-09 1.780093383143D+00
     7.122755050659D-06 2.560205757618D-04 6.278976798058D-06 5.440618337631D+03
     1.956000000000D+05 2.421438694000D-08-3.034522677078D+00-4.656612873077D-08
     9.759423727857D-01 2.106562500000D+02-3.758289005880D-01-5.637020518817D-09
     3.010839699273D-10 0.000000000000D+00 2.188000000000D+03                   
     1.070000000000D+02 0.000000000000D+00 9.313225746155D-10 9.313225746155D-10
     0.000000000000D+00                                                         
E09 2021 12 14 06 20 00 5.430597986560D-03-1.297451035498D-11 0.000000000000D+00
     7.000000000000D+01-4.271875000000D+01 3.473716122791D-09 1.249708087175D+00
    -2.073124051094D-06 2.302131615579D-04 5.044043064117D-06 5.440611043930D+03
     1.956000000000D+05 4.284083843231D-08 1.145622039299D+00-5.029141902924D-08
     9.612693073765D-01 2.355312500000D+02 6.411720513895D-01-5.739881946265D-09
    -2.617966191657D-10 0.000000000000D+00 2.188000000000D+03                   
     1.070000000000D+02 0.000000000000D+00 2.095475792885D-09 2.328306436539D-09
     0.000000000000D+00                                                         
E24 2021 12 14 06 20 00-1.278823707253D-03-2.067679361062D-11 0.000000000000D+00
     7.000000000000D+01 1.380312500000D+02 2.914407111040D-09-5.967515489373D-01
     6.521120667458D-06 6.180204218253D-04 6.614252924919D-06 5.440612237930D+03
     1.956000000000D+05-3.166496753693D-08-3.032969918274D+00-1.303851604462D-08
     9.734390668673D-01 2.025312500000D+02 4.423207041128D-01-5.589161382435D-09
     2.803688213439D-10 0.000000000000D+00 2.188000000000D+03                   
     1.070000000000D+02 0.000000000000D+00-3.492459654808D-09-4.190951585770D-09
     0.000000000000D+00                                                         
E01 2021 12 14 06 30 00-5.376242916100D-04-8.029132914089D-12 0.000000000000D+00
     7.100000000000D+01 1.574375000000D+02 2.939050994700D-09 1.855103182254D+00
     7.189810276031D-06 2.561957808211D-04 6.226822733879D-06 5.440617866516D+03
     1.962000000000D+05 3.725290298462D-08-3.034525994977D+00-5.029141902924D-08
     9.759425732055D-01 2.118125000000D+02-3.764538621173D-01-5.641306411627D-09
     2.939408152434D-10 0.000000000000D+00 2.188000000000D+03                   
     1.070000000000D+02 0.000000000000D+00 9.313225746155D-10 9.313225746155D-10
     0.000000000000D+00                                                         
E09 2021 12 14 06 30 00 5.430590244941D-03-1.297451035498D-11 0.000000000000D+00
     7.100000000000D+01-4.259375000000D+01 3.481216435209D-09 1.324161967175D+00
    -2.082437276840D-06 2.302181674168D-04 5.040317773819D-06 5.440611013412D+03
     1.962000000000D+05 4.656612873077D-08 1.145618651181D+00-4.097819328308D-08
     9.612691391409D-01 2.355000000000D+02 6.411037813915D-01-5.745953627747D-09
    -2.653681965077D-10 0.000000000000D+00 2.188000000000D+03                   
     1.070000000000D+02 0.000000000000D+00 2.095475792885D-09 2.328306436539D-09
     0.000000000000D+00                                                         
